ONEWEB-0549             
1 56051U 23043F   25182.61502595  .00000159  00000+0  35243-3 0  9994
2 56051  87.9275 313.9137 0002264  96.3195 263.8197 13.21827242111912
ONEWEB-0550             
1 56052U 23043G   25182.07254029  .00000072  00000+0  14404-3 0  9991
2 56052  87.9270 314.0158 0001757 102.3905 257.7426 13.21826956111846
ONEWEB-0551             
1 56053U 23043H   25182.45489361  .00000037  00000+0  64085-4 0  9995
2 56053  87.9064 329.1602 0002090  98.1155 262.0212 13.15548823110285
ONEWEB-0552             
1 56054U 23043J   25182.44471717  .00000054  00000+0  98784-4 0  9993
2 56054  87.9269 313.9505 0002172 104.5473 255.5902 13.21824781111890
ONEWEB-0553             
1 56055U 23043K   25182.22797357  .00000144  00000+0  34182-3 0  9992
2 56055  87.9054 298.7263 0001589  94.7534 265.3779 13.16593988112790
ONEWEB-0554             
1 56056U 23043L   25182.06330996 -.00000009  00000+0 -57771-4 0  9999
2 56056  87.9050 298.7870 0001783 108.4638 251.6687 13.16593412112759
ONEWEB-0555             
1 56057U 23043M   25182.40529338  .00000048  00000+0  92830-4 0  9994
2 56057  87.9054 298.6853 0001451  89.8062 270.3235 13.16594262112806
ONEWEB-0557             
1 56058U 23043N   25182.57153320 -.00000045  00000+0 -15168-3 0  9994
2 56058  87.9051 298.6744 0000896 138.5257 221.5942 13.16595081112828
